NORAD_CAT_ID,OBJECT_NAME,OBJECT_TYPE,EPOCH,MEAN_MOTION,ECCENTRICITY,INCLINATION,RA_OF_ASC_NODE,ARG_OF_PERICENTER,MEAN_ANOMALY,BSTAR,MEAN_MOTION_DOT,MEAN_MOTION_DDOT,TLE_LINE0,TLE_LINE1,TLE_LINE2,SEMIMAJOR_AXIS,PERIOD,APOGEE,PERIGEE,DECAYED
51472.0,STARLINK-3415,PAYLOAD,2024-08-05 16:18:54,15.08854147,0.0001429,53.2173,7.3094,92.425,267.6906,0.00030506,4.572e-05,0.0,0 STARLINK-3415,1 51472U 22010S   24218.67980106  .00004572  00000-0  30506-3 0  9993,2 51472  53.2173   7.3094 0001429  92.4250 267.6906 15.08854147139612,6917.837,95.437,540.691,538.714,0.0
51472.0,STARLINK-3415,PAYLOAD,2024-08-06 03:26:36,15.08848584,0.0001495,53.2155,5.2285,85.3718,274.7445,8.5386e-05,1.071e-05,0.0,0 STARLINK-3415,1 51472U 22010S   24219.14347992  .00001071  00000-0  85386-4 0  9994,2 51472  53.2155   5.2285 0001495  85.3718 274.7445 15.08848584139686,6917.854,95.437,540.753,538.685,0.0
51472.0,STARLINK-3415,PAYLOAD,2024-08-06 12:58:55,15.08838886,0.0001921,53.2188,3.4418,112.4896,247.6299,-5.1719e-05,-1.111e-05,0.0,0 STARLINK-3415,1 51472U 22010S   24219.54092516 -.00001111  00000-0 -51719-4 0  9997,2 51472  53.2188   3.4418 0001921 112.4896 247.6299 15.08838886139740,6917.884,95.438,541.078,538.42,0.0
51472.0,STARLINK-3415,PAYLOAD,2024-08-06 14:34:19,15.08837216,0.0001736,53.2193,3.1447,119.2575,240.859,2.6338e-07,-2.84e-06,0.0,0 STARLINK-3415,1 51472U 22010S   24219.60716648 -.00000284  00000-0  26338-6 0  9993,2 51472  53.2193   3.1447 0001736 119.2575 240.8590 15.08837216139259,6917.889,95.438,540.955,538.553,0.0
51472.0,STARLINK-3415,PAYLOAD,2024-08-06 16:09:42,15.0883517,0.0001539,53.2166,2.8502,97.873,262.2437,-6.0407e-05,-1.249e-05,0.0,0 STARLINK-3415,1 51472U 22010S   24219.67340759 -.00001249  00000-0 -60407-4 0  9992,2 51472  53.2166   2.8502 0001539  97.8730 262.2437 15.08835170139268,6917.895,95.438,540.825,538.695,0.0
51472.0,STARLINK-3415,PAYLOAD,2024-08-07 12:49:43,15.08843857,0.000172,53.2176,358.9833,101.0773,259.0412,0.00022148,3.239e-05,0.0,0 STARLINK-3415,1 51472U 22010S   24220.53452757  .00003239  00000-0  22148-3 0  9999,2 51472  53.2176 358.9833 0001720 101.0773 259.0412 15.08843857139390,6917.869,95.437,540.923,538.544,0.0
51472.0,STARLINK-3415,PAYLOAD,2024-08-07 16:00:29,15.0884862,0.000172,53.2185,358.3894,100.3445,259.7741,0.00041819,6.375e-05,0.0,0 STARLINK-3415,1 51472U 22010S   24220.66700705  .00006375  00000-0  41819-3 0  9992,2 51472  53.2185 358.3894 0001720 100.3445 259.7741 15.08848620139912,6917.854,95.437,540.909,538.529,0.0
51472.0,STARLINK-3415,PAYLOAD,2024-08-08 14:15:53,15.08860142,0.000152,53.2185,354.2266,101.4282,258.688,0.0006937,0.00010776,0.0,0 STARLINK-3415,1 51472U 22010S   24221.59436500  .00010776  00000-0  69370-3 0  9996,2 51472  53.2185 354.2266 0001520 101.4282 258.6880 15.08860142139554,6917.819,95.436,540.735,538.632,0.0
51472.0,STARLINK-3415,PAYLOAD,2024-08-08 15:51:16,15.0886389,0.0001511,53.2187,353.9288,103.1297,256.9864,0.00097174,0.00015221,0.0,0 STARLINK-3415,1 51472U 22010S   24221.66060382  .00015221  00000-0  97174-3 0  9998,2 51472  53.2187 353.9288 0001511 103.1297 256.9864 15.08863890139568,6917.807,95.436,540.718,538.627,0.0
51472.0,STARLINK-3415,PAYLOAD,2024-08-09 12:31:17,15.08845098,0.0001413,53.2179,350.0614,82.4838,277.6315,0.00029209,4.364e-05,0.0,0 STARLINK-3415,1 51472U 22010S   24222.52172468  .00004364  00000-0  29209-3 0  9993,2 51472  53.2179 350.0614 0001413  82.4838 277.6315 15.08845098140193,6917.865,95.437,540.707,538.752,0.0
51472.0,STARLINK-3415,PAYLOAD,2024-08-09 14:06:40,15.08845683,0.0001413,53.218,349.7644,82.2121,277.9032,0.00023801,3.503e-05,0.0,0 STARLINK-3415,1 51472U 22010S   24222.58796413  .00003503  00000-0  23801-3 0  9997,2 51472  53.2180 349.7644 0001413  82.2121 277.9032 15.08845683139700,6917.863,95.437,540.706,538.751,0.0
51472.0,STARLINK-3415,PAYLOAD,2024-08-09 15:42:03,15.08845434,0.0001422,53.2184,349.4728,89.8507,270.2648,0.00027116,4.031e-05,0.0,0 STARLINK-3415,1 51472U 22010S   24222.65420435  .00004031  00000-0  27116-3 0  9993,2 51472  53.2184 349.4728 0001422  89.8507 270.2648 15.08845434139719,6917.864,95.437,540.712,538.745,0.0
51472.0,STARLINK-3415,PAYLOAD,2024-08-10 12:22:04,15.08833701,0.0001432,53.2181,345.6056,76.7281,283.3871,0.00015436,2.169e-05,0.0,0 STARLINK-3415,1 51472U 22010S   24223.51533360  .00002169  00000-0  15436-3 0  9993,2 51472  53.2181 345.6056 0001432  76.7281 283.3871 15.08833701140341,6917.9,95.438,540.755,538.774,0.0
51472.0,STARLINK-3415,PAYLOAD,2024-08-10 13:57:27,15.08834165,0.0001612,53.2184,345.3078,79.4958,280.6216,0.00034068,5.137e-05,0.0,0 STARLINK-3415,1 51472U 22010S   24223.58157345  .00005137  00000-0  34068-3 0  9995,2 51472  53.2184 345.3078 0001612  79.4958 280.6216 15.08834165139858,6917.898,95.438,540.878,538.648,0.0
51472.0,STARLINK-3415,PAYLOAD,2024-08-10 15:32:51,15.08844031,0.0001607,53.2183,345.009,65.0743,295.0416,0.00075052,0.00011678,0.0,0 STARLINK-3415,1 51472U 22010S   24223.64781284  .00011678  00000-0  75052-3 0  9992,2 51472  53.2183 345.0090 0001607  65.0743 295.0416 15.08844031140368,6917.868,95.437,540.845,538.621,0.0
51472.0,STARLINK-3415,PAYLOAD,2024-08-11 07:26:43,15.08829505,0.0001172,53.2173,342.037,79.599,280.5134,0.00069753,0.00010827,0.0,0 STARLINK-3415,1 51472U 22010S   24224.31022147  .00010827  00000-0  69753-3 0  9999,2 51472  53.2173 342.0370 0001172  79.5990 280.5134 15.08829505140462,6917.912,95.438,540.588,538.967,0.0
51472.0,STARLINK-3415,PAYLOAD,2024-08-11 16:59:01,15.08864489,0.0001442,53.2175,340.2543,80.8558,279.2597,0.001694,0.00026793,0.0,0 STARLINK-3415,1 51472U 22010S   24224.70765743  .00026793  00000-0  16940-2 0  9996,2 51472  53.2175 340.2543 0001442  80.8558 279.2597 15.08864489140526,6917.806,95.436,540.668,538.673,0.0
51472.0,STARLINK-3415,PAYLOAD,2024-08-12 00:55:57,15.08862866,0.0001314,53.2166,338.7647,103.735,256.3788,0.0011175,0.00017553,0.0,0 STARLINK-3415,1 51472U 22010S   24225.03885454  .00017553  00000-0  11175-2 0  9994,2 51472  53.2166 338.7647 0001314 103.7350 256.3788 15.08862866140576,6917.81,95.436,540.584,538.766,0.0
51472.0,STARLINK-3415,PAYLOAD,2024-08-12 13:39:01,15.08918152,0.0002877,53.215,336.3911,82.8048,277.3271,0.0031158,0.00049759,0.0,0 STARLINK-3415,1 51472U 22010S   24225.56876240  .00049759  00000-0  31158-2 0  9991,2 51472  53.2150 336.3911 0002877  82.8048 277.3271 15.08918152140652,6917.642,95.433,541.497,537.516,0.0
51472.0,STARLINK-3415,PAYLOAD,2024-08-13 00:46:40,15.08937445,0.0002967,53.2184,334.2997,266.5791,93.4862,0.0025386,0.00040456,0.0,0 STARLINK-3415,1 51472U 22010S   24226.03241535  .00040456  00000-0  25386-2 0  9998,2 51472  53.2184 334.2997 0002967 266.5791  93.4862 15.08937445140723,6917.583,95.431,541.5,537.395,0.0
51472.0,STARLINK-3415,PAYLOAD,2024-08-13 13:29:49,15.08791612,0.0001506,53.2162,331.9267,93.1826,266.9338,-0.0012433,-0.00019994,0.0,0 STARLINK-3415,1 51472U 22010S   24226.56238094 -.00019994  00000-0 -12433-2 0  9996,2 51472  53.2162 331.9267 0001506  93.1826 266.9338 15.08791612140802,6918.028,95.441,540.935,538.851,0.0
51472.0,STARLINK-3415,PAYLOAD,2024-08-14 00:37:33,15.08799511,0.0001256,53.2166,329.8445,93.0257,267.0879,0.00091121,0.00014228,0.0,0 STARLINK-3415,1 51472U 22010S   24227.02607727  .00014228  00000-0  91121-3 0  9996,2 51472  53.2166 329.8445 0001256  93.0257 267.0879 15.08799511140874,6918.004,95.44,540.738,539.0,0.0
51472.0,STARLINK-3415,PAYLOAD,2024-08-14 06:59:05,15.08824114,6.65e-05,53.216,328.6546,57.123,302.9826,0.0016916,0.00026725,0.0,0 STARLINK-3415,1 51472U 22010S   24227.29103701  .00026725  00000-0  16916-2 0  9991,2 51472  53.2160 328.6546 0000665  57.1230 302.9826 15.08824114140916,6917.929,95.439,540.254,539.334,0.0
51472.0,STARLINK-3415,PAYLOAD,2024-08-14 13:20:37,15.08857758,7.4e-05,53.2144,327.4685,72.8186,287.2887,0.0020858,0.0003308,0.0,0 STARLINK-3415,1 51472U 22010S   24227.55599320  .00033080  00000-0  20858-2 0  9998,2 51472  53.2144 327.4685 0000740  72.8186 287.2887 15.08857758140953,6917.826,95.436,540.203,539.179,0.0
51472.0,STARLINK-3415,PAYLOAD,2024-08-15 13:11:24,15.08863243,9.53e-05,53.2177,323.0017,109.4204,250.6891,0.002556,0.00040651,0.0,0 STARLINK-3415,1 51472U 22010S   24228.54958405  .00040651  00000-0  25560-2 0  9998,2 51472  53.2177 323.0017 0000953 109.4204 250.6891 15.08863243140601,6917.809,95.436,540.334,539.015,0.0
51472.0,STARLINK-3415,PAYLOAD,2024-08-16 09:51:25,15.08868499,9.55e-05,53.2169,319.1389,86.5997,273.5104,0.0024292,0.00038615,0.0,0 STARLINK-3415,1 51472U 22010S   24229.41070698  .00038615  00000-0  24292-2 0  9992,2 51472  53.2169 319.1389 0000955  86.5997 273.5104 15.08868499141235,6917.793,95.436,540.319,538.998,0.0
51472.0,STARLINK-3415,PAYLOAD,2024-08-17 16:03:44,15.08843371,0.000133,53.2163,313.4852,98.4253,261.689,0.00018829,2.71e-05,0.0,0 STARLINK-3415,1 51472U 22010S   24230.66926703  .00002710  00000-0  18829-3 0  9995,2 51472  53.2163 313.4852 0001330  98.4253 261.6890 15.08843371141429,6917.87,95.437,540.655,538.815,0.0
51472.0,STARLINK-3415,PAYLOAD,2024-08-18 12:43:45,15.08842383,0.0001489,53.2161,309.6212,73.527,286.5885,0.00019807,2.866e-05,0.0,0 STARLINK-3415,1 51472U 22010S   24231.53039036  .00002866  00000-0  19807-3 0  9995,2 51472  53.2161 309.6212 0001489  73.5270 286.5885 15.08842383141558,6917.873,95.437,540.768,538.708,0.0
51472.0,STARLINK-3415,PAYLOAD,2024-08-18 14:19:08,15.08847856,0.0001372,53.2161,309.3214,96.8951,263.2198,0.00028979,4.328e-05,0.0,0 STARLINK-3415,1 51472U 22010S   24231.59662679  .00004328  00000-0  28979-3 0  9991,2 51472  53.2161 309.3214 0001372  96.8951 263.2198 15.08847856141067,6917.856,95.437,540.671,538.772,0.0
51472.0,STARLINK-3415,PAYLOAD,2024-08-19 09:23:46,15.08844895,0.0001576,53.2154,305.7533,88.2467,271.8705,0.00017924,2.566e-05,0.0,0 STARLINK-3415,1 51472U 22010S   24232.39150754  .00002566  00000-0  17924-3 0  9996,2 51472  53.2154 305.7533 0001576  88.2467 271.8705 15.08844895141188,6917.865,95.437,540.821,538.64,0.0
